# From MPEC 2021-N06
233P/La Sagra,e,11.2888,74.8984,27.0242,3.026547,0.1871901,0.41294671,303.8158,03/14.0/2025,2000,g 15.0,4.0
# From MPEC 2025-DP4
234P/LINEAR,e,11.5341,179.5664,357.4330,3.797646,0.1331780,0.25720626,18.8270,03/14.0/2025,2000,g 12.0,4.0
# From MPEC 2025-EB9
235P/LINEAR,e,9.8123,200.1963,352.0929,3.449248,0.1538571,0.42647478,316.3958,03/14.0/2025,2000,g 12.0,4.0
# From MPEC 2024-P23
236P/LINEAR,e,16.3558,245.5689,119.4197,3.724324,0.1371301,0.50914788,5.2364,03/14.0/2025,2000,g 14.0,4.0
# From MPEC 2025-CE3
237P/LINEAR,e,14.0151,245.3553,25.4920,3.515685,0.1495165,0.43309090,100.0802,03/14.0/2025,2000,g 14.5,2.0
# From MPEC 2024-L77
238P/Read,e,1.2638,51.6465,324.2717,3.167271,0.1748543,0.25071173,177.1116,03/14.0/2025,2000,g 14.5,4.0
# From MPEC 2021-F20
239P/LINEAR,e,11.3073,255.9428,220.3707,4.464123,0.1044960,0.63145415,235.4772,03/14.0/2025,2000,g 17.5,2.0
# From MPEC 2024-YC7
240P/NEAT,e,23.5370,74.9148,352.0680,3.860135,0.1299572,0.45033920,323.4846,03/14.0/2025,2000,g 11.0,4.0
# From MPEC 2022-J42
241P/LINEAR,e,21.0947,305.4242,111.5993,4.927231,0.0901155,0.61023669,119.5603,03/14.0/2025,2000,g 13.5,4.0
# From MPEC 2025-EG2
242P/Spahr,e,32.4252,180.2762,244.9394,5.537521,0.0756364,0.28277937,6.1060,03/14.0/2025,2000,g  8.0,4.0
# From MPEC 2022-K19
243P/NEAT,e,7.6442,87.6480,283.6984,3.827171,0.1316398,0.36035893,314.1218,03/14.0/2025,2000,g 12.5,4.0
# From MPEC 2024-L77
244P/Scotti,e,2.2578,354.0090,93.4662,4.903867,0.0907603,0.19987634,76.7027,03/14.0/2025,2000,g  9.0,4.0
# From MPEC 2022-CN4
245P/WISE,e,21.1717,316.8860,316.5077,4.052241,0.1208262,0.45574964,313.8171,03/14.0/2025,2000,g 14.0,4.0
# From MPEC 2024-YC7
246P/NEAT,e,17.6113,74.2498,185.6641,4.273504,0.1115650,0.22699616,173.4993,03/14.0/2025,2000,g 10.5,4.0
# From MPEC 2021-F20
247P/LINEAR,e,13.6581,53.9928,47.4914,3.964234,0.1248720,0.62557025,286.2069,03/14.0/2025,2000,g 16.5,2.0
# From MPC 75730
248P/Gibbs,e,6.3519,207.8070,209.9780,5.981676,0.0673705,0.63926713,347.5416,03/14.0/2025,2000,g 14.0,4.0
# From MPEC 2022-YN2
249P/LINEAR,e,8.3854,239.0425,65.7435,2.764939,0.2143757,0.81934379,8.6406,03/14.0/2025,2000,g 15.5,4.0
# From MPEC 2025-DP4
250P/Larson,e,13.1526,73.3050,45.7147,3.778657,0.1341831,0.39864710,351.4445,03/14.0/2025,2000,g 14.5,4.0
# From MPEC 2024-TD8
251P/LINEAR,e,23.3879,219.3379,31.1957,3.512080,0.1497468,0.50424532,59.1241,03/14.0/2025,2000,g 16.5,2.0
# From MPEC 2021-S45
252P/LINEAR,e,10.4194,190.9059,343.3758,3.051207,0.1849254,0.67100661,248.3459,03/14.0/2025,2000,g 17.5,4.0
# From MPEC 2025-EG2
253P/PANSTARRS,e,4.9441,146.8533,230.8386,3.464163,0.1528645,0.41493111,22.0099,03/14.0/2025,2000,g 14.5,4.0
# From MPEC 2025-DP4
254P/McNaught,e,32.5395,129.1803,219.7386,4.619855,0.0992571,0.31855146,161.5095,03/14.0/2025,2000,g 11.0,4.0
# From NK 2214
255P/Levy,e,13.4054,275.6367,186.0419,2.942310,0.1952862,0.71204538,179.2729,03/14.0/2025,2000,g  9.0,4.0
# From MPEC 2024-L77
256P/LINEAR,e,27.6240,81.3277,124.0740,4.635380,0.0987589,0.41795741,72.3975,03/14.0/2025,2000,g 14.0,2.0
# From MPEC 2023-A50
257P/Catalina,e,20.2165,207.7265,117.7403,3.767679,0.1347700,0.42881469,222.0312,03/14.0/2025,2000,g 11.5,4.0
# From MPEC 2021-U31
258P/PANSTARRS,e,6.7511,126.2359,25.5957,4.389186,0.1071836,0.20946132,185.4151,03/14.0/2025,2000,g 13.0,4.0
# From MPC106349
259P/Garradd,e,15.8983,51.3722,257.4987,2.729272,0.2185918,0.33872125,247.1637,03/14.0/2025,2000,g 15.5,4.0
# From MPEC 2022-O01
260P/McNaught,e,15.0437,349.3098,18.4925,3.623527,0.1428917,0.60883751,287.2726,03/14.0/2025,2000,g 13.5,4.0
# From MPEC 2021-J28
261P/Larson,e,6.0733,291.0507,67.3657,3.489781,0.1511843,0.42284387,316.4024,03/14.0/2025,2000,g 14.0,4.0
# From MPC 82322
262P/McNaught-Russell,e,29.2567,217.8875,171.0703,6.869240,0.0547446,0.81606444,244.9378,03/14.0/2025,2000,g 13.5,4.0
# From MPEC 2024-L77
263P/Gibbs,e,11.5267,105.5039,35.0199,3.040923,0.1858643,0.59400326,143.7033,03/14.0/2025,2000,g 18.0,4.0
# From MPC114608
264P/Larsen,e,25.1853,219.2254,341.1279,4.027897,0.1219232,0.34070218,270.8017,03/14.0/2025,2000,g 13.0,4.0
# From MPC 79870
265P/LINEAR,e,14.3428,342.9268,33.5585,4.260521,0.1120753,0.64684089,167.4552,03/14.0/2025,2000,g 14.5,4.0
# From MPEC 2021-F20
266P/Christensen,e,3.4282,4.9481,97.7760,3.528188,0.1487224,0.34091169,265.8160,03/14.0/2025,2000,g 14.7,4.0
# From MPC114608
267P/LONEOS,e,6.1410,228.5790,114.2126,3.209472,0.1714169,0.61464916,55.3903,03/14.0/2025,2000,g 19.5,4.0
# From MPEC 2025-EB9
268P/Bernardi,e,15.6613,125.6322,0.0157,4.591493,0.1001782,0.47453795,8.5673,03/14.0/2025,2000,g 14.0,4.0
# From MPEC 2023-J29
269P/Jedicke,e,7.0843,241.7694,225.7137,7.058950,0.0525526,0.43345001,200.1779,03/14.0/2025,2000,g 10.0,4.0
# From MPC 88332
270P/Gehrels,e,2.9250,223.0310,209.9117,6.649658,0.0574785,0.47020358,246.1086,03/14.0/2025,2000,g  8.0,4.0
# From MPC 92277
271P/van Houten-Lemmon,e,6.8673,9.2881,36.6035,7.032271,0.0528519,0.39598273,224.4740,03/14.0/2025,2000,g 11.0,4.0
# From MPEC 2023-D41
272P/NEAT,e,18.0818,109.4393,27.8849,4.461895,0.1045743,0.45545780,101.4996,03/14.0/2025,2000,g 16.0,2.0
# From MPC 82723
273P/Pons-Gambart,e,136.3979,320.3876,20.1393,31.94344,0.0054592,0.97450893,0.0000,12/22.1938/2012,2000,g 11.5,4.0
# From MPEC 2024-GJ3
274P/Tombaugh-Tenagra,e,15.8211,81.3179,38.4867,4.378336,0.1075822,0.44021668,115.1062,03/14.0/2025,2000,g 13.0,4.0
# From MPC 81862
275P/Hermann,e,21.2553,348.6878,173.8987,5.794547,0.0706602,0.71368616,318.0957,03/14.0/2025,2000,g 17.0,4.0
# From MPEC 2025-EG2
276P/Vorobjov,e,14.7892,211.3144,199.2910,5.358672,0.0794545,0.27245383,7.4041,03/14.0/2025,2000,g 11.5,4.0
# From MPEC 2021-F20
277P/LINEAR,e,16.7928,276.2603,152.4316,3.853557,0.1302901,0.50644580,199.7823,03/14.0/2025,2000,g 15.1,4.0
# From MPEC 2021-S45
278P/McNaught,e,6.6214,13.6535,239.2007,3.650346,0.1413198,0.44853387,230.4556,03/14.0/2025,2000,g 14.0,4.0
# From MPEC 2024-A43
279P/LaSagra,e,5.0520,346.1059,5.6587,3.568870,0.1461868,0.39936796,101.6259,03/14.0/2025,2000,g 14.0,4.0
# From MPEC 2024-RQ6
280P/Larsen,e,11.7753,131.3776,104.6520,4.524936,0.1023966,0.41679664,60.1668,03/14.0/2025,2000,g 12.5,4.0
# From MPEC 2023-D41
281P/MOSS,e,4.7177,87.1656,26.9637,4.886031,0.0912578,0.17391254,70.1884,03/14.0/2025,2000,g 11.0,4.0
# From MPC133426
282P/,e,5.8134,217.6082,9.1192,4.235695,0.1130621,0.18763916,139.9840,03/14.0/2025,2000,g 13.5,2.0
# From MPEC 2022-K19
283P/Spacewatch,e,14.4672,161.1224,22.1442,4.132016,0.1173441,0.48485707,150.5414,03/14.0/2025,2000,g 16.0,2.0
# From MPEC 2024-D33
284P/McNaught,e,11.8535,144.2654,202.4720,3.678720,0.1396880,0.37438492,178.7310,03/14.0/2025,2000,g 13.0,4.0
# From MPEC 2024-L77
285P/LINEAR,e,25.0336,185.5125,178.3900,4.505610,0.1030561,0.61813650,81.6294,03/14.0/2025,2000,g 15.0,4.0
# From MPEC 2024-LE0
286P/Christensen,e,17.1973,283.5738,24.2342,4.085236,0.1193654,0.42950631,123.7722,03/14.0/2025,2000,g 14.0,4.0
# From MPEC 2025-A40
287P/Christensen,e,16.3230,138.8078,190.0275,4.181256,0.1152773,0.27280660,70.7394,03/14.0/2025,2000,g 13.5,4.0
# From MPC133426
288P/,e,3.2383,83.1052,280.3005,3.050287,0.1850091,0.19969963,205.1532,03/14.0/2025,2000,g 16.0,2.0
# From MPEC 2024-O39
289P/Blanpain,e,5.9003,68.8913,9.8792,3.043889,0.1855926,0.68647407,354.1872,03/14.0/2025,2000,g 19.0,4.0
# From MPC 95214
290P/Jager,e,20.0470,302.6751,181.8492,6.214170,0.0636252,0.62819911,258.7581,03/14.0/2025,2000,g 10.5,4.0
# From MPEC 2024-YC7
291P/NEAT,e,6.3097,237.6602,173.5578,4.534775,0.1020635,0.43394482,69.3993,03/14.0/2025,2000,g 13.0,4.0
# From MPEC 2022-K19
292P/Li,e,24.3227,90.8953,319.6572,6.096224,0.0654806,0.58994381,265.0180,03/14.0/2025,2000,g 12.5,4.0
# From MPEC 2022-L66
293P/Spacewatch,e,9.0613,78.3644,40.9740,3.637871,0.1420474,0.41948679,219.3689,03/14.0/2025,2000,g 14.5,4.0
# From MPEC 2025-DP4
294P/LINEAR,e,17.7414,309.6023,237.5736,3.191293,0.1728837,0.60107119,334.0365,03/14.0/2025,2000,g 15.5,4.0
# From MPEC 2022-K19
295P/LINEAR,e,21.0836,7.3834,73.0318,5.299436,0.0807904,0.61765288,319.9512,03/14.0/2025,2000,g 12.0,4.0
# From MPEC 2021-N06
296P/Garradd,e,25.3806,263.5328,350.0916,3.476121,0.1520764,0.48490439,247.9431,03/14.0/2025,2000,g 14.0,4.0
# From MPC102956
297P/Beshore,e,11.2315,92.1915,142.2313,3.562418,0.1465840,0.28943744,221.9277,03/14.0/2025,2000,g 15.0,4.0
# From MPC114609
298P/Christensen,e,7.8720,52.7888,100.6124,3.588306,0.1450006,0.38684611,239.2392,03/14.0/2025,2000,g 15.0,4.0
# From MPEC 2024-TD8
299P/Catalina-PANSTARRS,e,10.4691,271.5808,323.6290,4.388872,0.1071950,0.28091603,34.0816,03/14.0/2025,2000,g 11.5,4.0
# From MPEC 2023-VM5
300P/Catalina,e,5.6765,95.6212,222.8869,2.696579,0.2225790,0.69196475,156.4696,03/14.0/2025,2000,g 16.0,4.0
# From MPC 89014
301P/LINEAR-NEAT,e,10.3291,351.0647,193.4407,5.750968,0.0714649,0.58613997,277.0786,03/14.0/2025,2000,g 13.0,4.0
# From MPEC 2024-YC7
302P/Lemmon-PANSTARRS,e,6.0356,121.7154,208.6300,4.267689,0.1117931,0.22941172,0.5116,03/14.0/2025,2000,g 12.5,4.0
# From MPC 92278
303P/NEAT,e,7.0162,347.9522,357.0298,5.040046,0.0871068,0.51031132,330.1297,03/14.0/2025,2000,g 13.5,4.0
# From MPEC 2022-K19
304P/Ory,e,2.6058,58.9393,335.2779,3.149761,0.1763143,0.60087849,294.9075,03/14.0/2025,2000,g 16.5,4.0
# From MPEC 2025-EG2
305P/Skiff,e,11.6713,240.1040,147.4176,4.637382,0.0986949,0.69410070,11.5324,03/14.0/2025,2000,g 18.0,4.0
# From MPC 92278
306P/LINEAR,e,8.3028,341.3533,0.8970,3.124461,0.1784602,0.59258459,334.9000,03/14.0/2025,2000,g 19.0,4.0
# From MPC 92278
307P/LINEAR,e,4.4348,158.1218,222.2493,5.787872,0.0707825,0.67510259,263.7981,03/14.0/2025,2000,g 15.0,4.0
# From MPEC 2022-C56
308P/Lagerkvist-Carsenty,e,4.8525,63.0985,333.7556,6.600791,0.0581179,0.36428975,208.6606,03/14.0/2025,2000,g 13.0,2.0
# From MPEC 2025-EB9
309P/LINEAR,e,17.0206,10.1381,49.9149,4.374682,0.1077170,0.61826144,37.7048,03/14.0/2025,2000,g 15.0,4.0
# From MPEC 2025-DP4
310P/Hill,e,13.1200,8.8839,31.5261,4.181429,0.1152702,0.42214465,58.5342,03/14.0/2025,2000,g 13.5,4.0
# From MPEC 2024-A43
